{
  "type": "FeatureCollection",
  "features": [
    {
      "type": "Feature",
      "properties": {
        "norad_id": 54741,
        "name": "GALAXY 35 (G-35)",
        "group": "intelsat",
        "lat": -0.013251658457953324,
        "lon": -109.2028798576416,
        "alt_km": 35777.310483042085,
        "timestamp": "2025-12-26T16:33:55.251754+00:00",
        "meta_object_name": "GALAXY 35 (G-35)",
        "meta_object_id": "2022-170A",
        "meta_epoch": "2025-12-26T06:05:10.563072",
        "meta_mean_motion": 1.00270831,
        "meta_eccentricity": 0.00023837,
        "meta_inclination": 0.0213,
        "meta_ra_of_asc_node": 259.191,
        "meta_arg_of_pericenter": 17.6851,
        "meta_mean_anomaly": 176.3252,
        "meta_ephemeris_type": 0,
        "meta_classification_type": "U",
        "meta_norad_cat_id": 54741,
        "meta_element_set_no": 999,
        "meta_rev_at_epoch": 1116,
        "meta_bstar": 0,
        "meta_mean_motion_dot": -1.4e-06,
        "meta_mean_motion_ddot": 0,
        "tle_line1": "1 54741U 22170A   25360.25359448 -.00000140  00000+0  00000+0 0  9993",
        "tle_line2": "2 54741   0.0213 259.1910 0002383  17.6851 176.3252  1.00270831 11167"
      },
      "geometry": {
        "type": "Point",
        "coordinates": [
          -109.2028798576416,
          -0.013251658457953324
        ]
      }
    },
    {
      "type": "Feature",
      "properties": {
        "norad_id": 54742,
        "name": "GALAXY 36 (G-36)",
        "group": "intelsat",
        "lat": -0.0061946466214411865,
        "lon": -105.09035473342513,
        "alt_km": 35785.7944625125,
        "timestamp": "2025-12-26T16:33:55.251764+00:00",
        "meta_object_name": "GALAXY 36 (G-36)",
        "meta_object_id": "2022-170B",
        "meta_epoch": "2025-12-26T06:07:06.911904",
        "meta_mean_motion": 1.00271848,
        "meta_eccentricity": 4.125e-05,
        "meta_inclination": 0.0203,
        "meta_ra_of_asc_node": 100.3613,
        "meta_arg_of_pericenter": 234.8581,
        "meta_mean_anomaly": 122.5715,
        "meta_ephemeris_type": 0,
        "meta_classification_type": "U",
        "meta_norad_cat_id": 54742,
        "meta_element_set_no": 999,
        "meta_rev_at_epoch": 1104,
        "meta_bstar": 0,
        "meta_mean_motion_dot": -1.63e-06,
        "meta_mean_motion_ddot": 0,
        "tle_line1": "1 54742U 22170B   25360.25494111 -.00000163  00000+0  00000+0 0  9996",
        "tle_line2": "2 54742   0.0203 100.3613 0000412 234.8581 122.5715  1.00271848 11041"
      },
      "geometry": {
        "type": "Point",
        "coordinates": [
          -105.09035473342513,
          -0.0061946466214411865
        ]
      }
    },
    {
      "type": "Feature",
      "properties": {
        "norad_id": 57493,
        "name": "GALAXY 37 (G-37)",
        "group": "intelsat",
        "lat": -0.004636794745017674,
        "lon": -143.1243222841013,
        "alt_km": 35781.700065938094,
        "timestamp": "2025-12-26T16:33:55.251774+00:00",
        "meta_object_name": "GALAXY 37 (G-37)",
        "meta_object_id": "2023-112A",
        "meta_epoch": "2025-12-26T05:45:44.958816",
        "meta_mean_motion": 1.00271855,
        "meta_eccentricity": 0.00021519,
        "meta_inclination": 0.011,
        "meta_ra_of_asc_node": 39.4451,
        "meta_arg_of_pericenter": 239.0541,
        "meta_mean_anomaly": 135.9186,
        "meta_ephemeris_type": 0,
        "meta_classification_type": "U",
        "meta_norad_cat_id": 57493,
        "meta_element_set_no": 999,
        "meta_rev_at_epoch": 880,
        "meta_bstar": 0,
        "meta_mean_motion_dot": 7e-07,
        "meta_mean_motion_ddot": 0,
        "tle_line1": "1 57493U 23112A   25360.24010369  .00000070  00000+0  00000+0 0  9993",
        "tle_line2": "2 57493   0.0110  39.4451 0002151 239.0541 135.9186  1.00271855  8809"
      },
      "geometry": {
        "type": "Point",
        "coordinates": [
          -143.1243222841013,
          -0.004636794745017674
        ]
      }
    }
  ]
}